start=new Date('2022-07-09T00:00:00.000Z').valueOf();
sats=[{"MEAN_ELEMENT_THEORY":"SGP4","BSTAR":"0.00017790000000","TLE_LINE1":"1 48677U 21044AR  22189.85907137  .00002369  00000-0  17790-3 0  9992","OBJECT_ID":"2021-044AR","SITE":"AFETR","MEAN_MOTION":"15.06402924","APOAPSIS":"548.214","OBJECT_NAME":"STARLINK-2719","LAUNCH_DATE":"2021-05-26","ARG_OF_PERICENTER":"85.2774","COUNTRY_CODE":"US","SEMIMAJOR_AXIS":"6925.340","TIME_SYSTEM":"UTC","RCS_SIZE":"LARGE","NORAD_CAT_ID":"48677","REV_AT_EPOCH":"6190","MEAN_MOTION_DDOT":"0.0000000000000","ECCENTRICITY":"0.00014570","INCLINATION":"53.0560","OBJECT_TYPE":"PAYLOAD","TLE_LINE2":"2 48677  53.0560   6.3507 0001457  85.2774 274.8381 15.06402924 61906","REF_FRAME":"TEME","DECAY_DATE":null,"CENTER_NAME":"EARTH","PERIAPSIS":"546.196","RA_OF_ASC_NODE":"6.3507","CLASSIFICATION_TYPE":"U","MEAN_MOTION_DOT":"0.00002369","GP_ID":"207694508","EPOCH":"2022-07-08T20:37:03.766368","PERIOD":"95.592","EPHEMERIS_TYPE":"0","FILE":"3510087","ELEMENT_SET_NO":"999","MEAN_ANOMALY":"274.8381"},{"MEAN_ELEMENT_THEORY":"SGP4","BSTAR":"0.00028797000000","OBJECT_ID":"2021-044AS","TLE_LINE1":"1 48678U 21044AS  22189.78997410  .00004011  00000-0  28797-3 0  9993","SITE":"AFETR","MEAN_MOTION":"15.06408319","APOAPSIS":"548.230","OBJECT_NAME":"STARLINK-2615","ARG_OF_PERICENTER":"75.4311","LAUNCH_DATE":"2021-05-26","COUNTRY_CODE":"US","TIME_SYSTEM":"UTC","SEMIMAJOR_AXIS":"6925.323","NORAD_CAT_ID":"48678","RCS_SIZE":"LARGE","REV_AT_EPOCH":"6189","ECCENTRICITY":"0.00015040","MEAN_MOTION_DDOT":"0.0000000000000","INCLINATION":"53.0563","OBJECT_TYPE":"PAYLOAD","TLE_LINE2":"2 48678  53.0563   6.6675 0001504  75.4311 284.6845 15.06408319 61896","REF_FRAME":"TEME","DECAY_DATE":null,"PERIAPSIS":"546.146","CENTER_NAME":"EARTH","MEAN_MOTION_DOT":"0.00004011","GP_ID":"207694759","RA_OF_ASC_NODE":"6.6675","CLASSIFICATION_TYPE":"U","EPOCH":"2022-07-08T18:57:33.762240","PERIOD":"95.592","EPHEMERIS_TYPE":"0","FILE":"3510087","MEAN_ANOMALY":"284.6845","ELEMENT_SET_NO":"999"},{"MEAN_ELEMENT_THEORY":"SGP4","BSTAR":"0.00008335400000","OBJECT_ID":"2021-044AT","TLE_LINE1":"1 48679U 21044AT  22189.85264065  .00000961  00000-0  83354-4 0  9996","SITE":"AFETR","MEAN_MOTION":"15.06412311","APOAPSIS":"548.154","OBJECT_NAME":"STARLINK-2648","LAUNCH_DATE":"2021-05-26","ARG_OF_PERICENTER":"85.5284","COUNTRY_CODE":"US","SEMIMAJOR_AXIS":"6925.311","TIME_SYSTEM":"UTC","NORAD_CAT_ID":"48679","RCS_SIZE":"LARGE","REV_AT_EPOCH":"6190","MEAN_MOTION_DDOT":"0.0000000000000","ECCENTRICITY":"0.00014120","INCLINATION":"53.0568","OBJECT_TYPE":"PAYLOAD","TLE_LINE2":"2 48679  53.0568   6.3922 0001412  85.5284 274.5866 15.06412311 61903","REF_FRAME":"TEME","DECAY_DATE":null,"CENTER_NAME":"EARTH","PERIAPSIS":"546.198","RA_OF_ASC_NODE":"6.3922","CLASSIFICATION_TYPE":"U","MEAN_MOTION_DOT":"0.00000961","GP_ID":"207695510","EPOCH":"2022-07-08T20:27:48.152160","PERIOD":"95.591","EPHEMERIS_TYPE":"0","FILE":"3510087","ELEMENT_SET_NO":"999","MEAN_ANOMALY":"274.5866"},{"LAUNCH_DATE":"2021-05-26","ARG_OF_PERICENTER":"76.7023","COUNTRY_CODE":"US","TIME_SYSTEM":"UTC","SEMIMAJOR_AXIS":"6925.312","NORAD_CAT_ID":"48680","RCS_SIZE":"LARGE","REV_AT_EPOCH":"6190","MEAN_ELEMENT_THEORY":"SGP4","BSTAR":"0.00006816000000","TLE_LINE1":"1 48680U 21044AU  22189.84895383  .00000734  00000-0  68160-4 0  9996","OBJECT_ID":"2021-044AU","SITE":"AFETR","MEAN_MOTION":"15.06411837","APOAPSIS":"548.226","OBJECT_NAME":"STARLINK-2649","RA_OF_ASC_NODE":"6.4122","CLASSIFICATION_TYPE":"U","GP_ID":"207693758","MEAN_MOTION_DOT":"0.00000734","EPOCH":"2022-07-08T20:22:29.610912","PERIOD":"95.591","EPHEMERIS_TYPE":"0","FILE":"3510087","ELEMENT_SET_NO":"999","MEAN_ANOMALY":"283.4135","MEAN_MOTION_DDOT":"0.0000000000000","ECCENTRICITY":"0.00015150","INCLINATION":"53.0566","OBJECT_TYPE":"PAYLOAD","TLE_LINE2":"2 48680  53.0566   6.4122 0001515  76.7023 283.4135 15.06411837 61903","REF_FRAME":"TEME","DECAY_DATE":null,"CENTER_NAME":"EARTH","PERIAPSIS":"546.128"},{"OBJECT_NAME":"STARLINK-2725","APOAPSIS":"548.086","MEAN_MOTION":"15.06424676","SITE":"AFETR","OBJECT_ID":"2021-044AV","TLE_LINE1":"1 48681U 21044AV  22189.71537106  .00004702  00000-0  33410-3 0  9997","BSTAR":"0.00033410000000","MEAN_ELEMENT_THEORY":"SGP4","REV_AT_EPOCH":"6229","NORAD_CAT_ID":"48681","RCS_SIZE":"LARGE","SEMIMAJOR_AXIS":"6925.273","TIME_SYSTEM":"UTC","COUNTRY_CODE":"US","ARG_OF_PERICENTER":"86.7613","LAUNCH_DATE":"2021-05-26","PERIAPSIS":"546.190","CENTER_NAME":"EARTH","DECAY_DATE":null,"REF_FRAME":"TEME","TLE_LINE2":"2 48681  53.0559 337.2308 0001369  86.7613 273.3532 15.06424676 62297","OBJECT_TYPE":"PAYLOAD","INCLINATION":"53.0559","ECCENTRICITY":"0.00013690","MEAN_MOTION_DDOT":"0.0000000000000","MEAN_ANOMALY":"273.3532","ELEMENT_SET_NO":"999","FILE":"3510087","EPHEMERIS_TYPE":"0","PERIOD":"95.591","EPOCH":"2022-07-08T17:10:08.059584","MEAN_MOTION_DOT":"0.00004702","GP_ID":"207694008","CLASSIFICATION_TYPE":"U","RA_OF_ASC_NODE":"337.2308"},{"APOAPSIS":"548.188","MEAN_MOTION":"15.06453379","OBJECT_NAME":"STARLINK-2743","BSTAR":"-0.00249480000000","MEAN_ELEMENT_THEORY":"SGP4","SITE":"AFETR","TLE_LINE1":"1 48682U 21044AW  22189.91668981 -.00037302  00000-0 -24948-2 0  9995","OBJECT_ID":"2021-044AW","TIME_SYSTEM":"UTC","SEMIMAJOR_AXIS":"6925.185","REV_AT_EPOCH":"130","NORAD_CAT_ID":"48682","RCS_SIZE":"LARGE","COUNTRY_CODE":"US","ARG_OF_PERICENTER":"57.0386","LAUNCH_DATE":"2021-05-26","REF_FRAME":"TEME","PERIAPSIS":"545.912","CENTER_NAME":"EARTH","DECAY_DATE":null,"INCLINATION":"53.0540","ECCENTRICITY":"0.00016430","MEAN_MOTION_DDOT":"0.0000000000000","TLE_LINE2":"2 48682  53.0540 326.2649 0001643  57.0386 330.5031 15.06453379  1304","OBJECT_TYPE":"PAYLOAD","FILE":"3510087","MEAN_ANOMALY":"330.5031","ELEMENT_SET_NO":"999","EPOCH":"2022-07-08T22:00:01.999584","GP_ID":"207695260","MEAN_MOTION_DOT":"-0.00037302","RA_OF_ASC_NODE":"326.2649","CLASSIFICATION_TYPE":"U","EPHEMERIS_TYPE":"0","PERIOD":"95.589"},{"MEAN_ANOMALY":"282.0663","ELEMENT_SET_NO":"999","FILE":"3510087","EPHEMERIS_TYPE":"0","PERIOD":"95.591","EPOCH":"2022-07-08T19:13:28.903008","GP_ID":"207695010","MEAN_MOTION_DOT":"0.00003109","RA_OF_ASC_NODE":"326.6314","CLASSIFICATION_TYPE":"U","PERIAPSIS":"546.177","CENTER_NAME":"EARTH","DECAY_DATE":null,"REF_FRAME":"TEME","TLE_LINE2":"2 48683  53.0571 326.6314 0001432  78.0486 282.0663 15.06414697 62457","OBJECT_TYPE":"PAYLOAD","INCLINATION":"53.0571","ECCENTRICITY":"0.00014320","MEAN_MOTION_DDOT":"0.0000000000000","REV_AT_EPOCH":"6245","NORAD_CAT_ID":"48683","RCS_SIZE":"LARGE","TIME_SYSTEM":"UTC","SEMIMAJOR_AXIS":"6925.304","COUNTRY_CODE":"US","ARG_OF_PERICENTER":"78.0486","LAUNCH_DATE":"2021-05-26","OBJECT_NAME":"STARLINK-2756","APOAPSIS":"548.160","MEAN_MOTION":"15.06414697","SITE":"AFETR","OBJECT_ID":"2021-044AX","TLE_LINE1":"1 48683U 21044AX  22189.80102897  .00003109  00000-0  22744-3 0  9992","BSTAR":"0.00022744000000","MEAN_ELEMENT_THEORY":"SGP4"},{"TIME_SYSTEM":"UTC","SEMIMAJOR_AXIS":"6925.315","REV_AT_EPOCH":"6224","RCS_SIZE":"LARGE","NORAD_CAT_ID":"48684","COUNTRY_CODE":"US","ARG_OF_PERICENTER":"77.8675","LAUNCH_DATE":"2021-05-26","APOAPSIS":"548.078","MEAN_MOTION":"15.06411035","OBJECT_NAME":"STARLINK-2741","BSTAR":"0.00023400000000","MEAN_ELEMENT_THEORY":"SGP4","SITE":"AFETR","OBJECT_ID":"2021-044AY","TLE_LINE1":"1 48684U 21044AY  22189.82365668  .00003207  00000-0  23400-3 0  9991","FILE":"3510087","ELEMENT_SET_NO":"999","MEAN_ANOMALY":"282.2459","EPOCH":"2022-07-08T19:46:03.937152","GP_ID":"207694259","MEAN_MOTION_DOT":"0.00003207","CLASSIFICATION_TYPE":"U","RA_OF_ASC_NODE":"341.8688","EPHEMERIS_TYPE":"0","PERIOD":"95.591","REF_FRAME":"TEME","PERIAPSIS":"546.282","CENTER_NAME":"EARTH","DECAY_DATE":null,"INCLINATION":"53.0560","ECCENTRICITY":"0.00012970","MEAN_MOTION_DDOT":"0.0000000000000","TLE_LINE2":"2 48684  53.0560 341.8688 0001297  77.8675 282.2459 15.06411035 62240","OBJECT_TYPE":"PAYLOAD"},{"DECAY_DATE":null,"CENTER_NAME":"EARTH","PERIAPSIS":"546.219","REF_FRAME":"TEME","OBJECT_TYPE":"PAYLOAD","TLE_LINE2":"2 48685  53.0574 327.0984 0001419  95.5745 264.5406 15.06403892 62441","MEAN_MOTION_DDOT":"0.0000000000000","ECCENTRICITY":"0.00014190","INCLINATION":"53.0574","MEAN_ANOMALY":"264.5406","ELEMENT_SET_NO":"999","FILE":"3510087","PERIOD":"95.592","EPHEMERIS_TYPE":"0","CLASSIFICATION_TYPE":"U","RA_OF_ASC_NODE":"327.0984","GP_ID":"207694509","MEAN_MOTION_DOT":"0.00003002","EPOCH":"2022-07-08T16:55:31.105632","OBJECT_NAME":"STARLINK-2751","MEAN_MOTION":"15.06403892","APOAPSIS":"548.184","OBJECT_ID":"2021-044AZ","TLE_LINE1":"1 48685U 21044AZ  22189.70522113  .00003002  00000-0  22035-3 0  9995","SITE":"AFETR","MEAN_ELEMENT_THEORY":"SGP4","BSTAR":"0.00022035000000","RCS_SIZE":"LARGE","NORAD_CAT_ID":"48685","REV_AT_EPOCH":"6244","TIME_SYSTEM":"UTC","SEMIMAJOR_AXIS":"6925.337","LAUNCH_DATE":"2021-05-26","ARG_OF_PERICENTER":"95.5745","COUNTRY_CODE":"US"},{"APOAPSIS":"548.272","MEAN_MOTION":"15.06406088","OBJECT_NAME":"STARLINK-2629","BSTAR":"0.00003571600000","MEAN_ELEMENT_THEORY":"SGP4","SITE":"AFETR","OBJECT_ID":"2021-044BA","TLE_LINE1":"1 48686U 21044BA  22189.69925961  .00000251  00000-0  35716-4 0  9996","SEMIMAJOR_AXIS":"6925.330","TIME_SYSTEM":"UTC","REV_AT_EPOCH":"6236","NORAD_CAT_ID":"48686","RCS_SIZE":"LARGE","COUNTRY_CODE":"US","LAUNCH_DATE":"2021-05-26","ARG_OF_PERICENTER":"57.2485","REF_FRAME":"TEME","CENTER_NAME":"EARTH","PERIAPSIS":"546.117","DECAY_DATE":null,"INCLINATION":"53.0550","MEAN_MOTION_DDOT":"0.0000000000000","ECCENTRICITY":"0.00015560","TLE_LINE2":"2 48686  53.0550 332.3568 0001556  57.2485 302.8654 15.06406088 62363","OBJECT_TYPE":"PAYLOAD","FILE":"3510087","ELEMENT_SET_NO":"999","MEAN_ANOMALY":"302.8654","EPOCH":"2022-07-08T16:46:56.030304","RA_OF_ASC_NODE":"332.3568","CLASSIFICATION_TYPE":"U","GP_ID":"207694760","MEAN_MOTION_DOT":"0.00000251","EPHEMERIS_TYPE":"0","PERIOD":"95.592"}];
